[{"OBJECT_NAME":"ION SCV-004","OBJECT_ID":"2022-002K","EPOCH":"2026-03-09T16:32:03.244416","MEAN_MOTION":15.29369331,"ECCENTRICITY":0.00072157,"INCLINATION":97.2961,"RA_OF_ASC_NODE":128.2294,"ARG_OF_PERICENTER":1.6783,"MEAN_ANOMALY":358.448,"EPHEMERIS_TYPE":0,"CLASSIFICATION_TYPE":"U","NORAD_CAT_ID":50993,"ELEMENT_SET_NO":999,"REV_AT_EPOCH":23008,"BSTAR":0.00023198467,"MEAN_MOTION_DOT":6.538e-5,"MEAN_MOTION_DDOT":0},{"OBJECT_NAME":"STARLINK-32198","OBJECT_ID":"2024-133W","EPOCH":"2026-03-09T21:49:44.612832","MEAN_MOTION":15.30191124,"ECCENTRICITY":0.00012456,"INCLINATION":53.1597,"RA_OF_ASC_NODE":296.0649,"ARG_OF_PERICENTER":76.389,"MEAN_ANOMALY":283.7249,"EPHEMERIS_TYPE":0,"CLASSIFICATION_TYPE":"U","NORAD_CAT_ID":60321,"ELEMENT_SET_NO":999,"REV_AT_EPOCH":9176,"BSTAR":2.2201034e-5,"MEAN_MOTION_DOT":2.98e-6,"MEAN_MOTION_DDOT":0}]
